ONEWEB-0291             
1 49081U 21075G   25075.95161853  .00000094  00000+0  20821-3 0  9992
2 49081  87.8999  96.9381 0001643  90.2862 269.8457 13.17648937173394
ONEWEB-0293             
1 49082U 21075H   25075.59724969  .00000000  00000+0 -33466-4 0  9994
2 49082  87.9005  97.0368 0001905  88.3497 271.7853 13.17647718173370
ONEWEB-0294             
1 49083U 21075J   25075.90643179  .00000233  00000+0  61342-3 0  9993
2 49083  87.8797  81.6678 0001583  72.8035 287.3267 13.12445741175583
ONEWEB-0295             
1 49084U 21075K   25075.74826170  .00000145  00000+0  33897-3 0  9996
2 49084  87.9017  96.9873 0001540  95.7799 264.3508 13.17647953173350
ONEWEB-0296             
1 49085U 21075L   25075.96318996 -.00000330  00000+0 -95260-3 0  9993
2 49085  87.8799  81.6629 0001232  83.8190 276.3079 13.12441119174604
ONEWEB-0297             
1 49086U 21075M   25075.91779412  .00000492  00000+0  13332-2 0  9999
2 49086  87.8807  81.6993 0001848  91.5804 268.5536 13.12442507175200
ONEWEB-0298             
1 49087U 21075N   25075.75262791  .00000078  00000+0  16851-3 0  9999
2 49087  87.9006  97.0030 0001869  98.8508 261.2835 13.17650349173389
ONEWEB-0299             
1 49088U 21075P   25075.75417715  .00000105  00000+0  23701-3 0  9991
2 49088  87.9001  96.9600 0001824 100.2423 259.8914 13.17651677173365
