<?xml version="1.0" encoding="UTF-8"?>
<ndm xmlns:xsi="http://www.w3.org/2001/XMLSchema-instance" xsi:noNamespaceSchemaLocation="https://sanaregistry.org/r/ndmxml_unqualified/ndmxml-2.0.0-master-2.0.xsd">
<omm id="CCSDS_OMM_VERS" version="2.0">
<header><CREATION_DATE/><ORIGINATOR/></header><body><segment><metadata><OBJECT_NAME>ONEWEB-0291</OBJECT_NAME><OBJECT_ID>2021-075G</OBJECT_ID><CENTER_NAME>EARTH</CENTER_NAME><REF_FRAME>TEME</REF_FRAME><TIME_SYSTEM>UTC</TIME_SYSTEM><MEAN_ELEMENT_THEORY>SGP4</MEAN_ELEMENT_THEORY></metadata><data><meanElements><EPOCH>2025-03-16T22:50:19.840992</EPOCH><MEAN_MOTION>13.17648937</MEAN_MOTION><ECCENTRICITY>.0001643</ECCENTRICITY><INCLINATION>87.8999</INCLINATION><RA_OF_ASC_NODE>96.9381</RA_OF_ASC_NODE><ARG_OF_PERICENTER>90.2862</ARG_OF_PERICENTER><MEAN_ANOMALY>269.8457</MEAN_ANOMALY></meanElements><tleParameters><EPHEMERIS_TYPE>0</EPHEMERIS_TYPE><CLASSIFICATION_TYPE>U</CLASSIFICATION_TYPE><NORAD_CAT_ID>49081</NORAD_CAT_ID><ELEMENT_SET_NO>999</ELEMENT_SET_NO><REV_AT_EPOCH>17339</REV_AT_EPOCH><BSTAR>.20821E-3</BSTAR><MEAN_MOTION_DOT>.94E-6</MEAN_MOTION_DOT><MEAN_MOTION_DDOT>0</MEAN_MOTION_DDOT></tleParameters></data></segment></body></omm>
<omm id="CCSDS_OMM_VERS" version="2.0">
<header><CREATION_DATE/><ORIGINATOR/></header><body><segment><metadata><OBJECT_NAME>ONEWEB-0293</OBJECT_NAME><OBJECT_ID>2021-075H</OBJECT_ID><CENTER_NAME>EARTH</CENTER_NAME><REF_FRAME>TEME</REF_FRAME><TIME_SYSTEM>UTC</TIME_SYSTEM><MEAN_ELEMENT_THEORY>SGP4</MEAN_ELEMENT_THEORY></metadata><data><meanElements><EPOCH>2025-03-16T14:20:02.373216</EPOCH><MEAN_MOTION>13.17647718</MEAN_MOTION><ECCENTRICITY>.0001905</ECCENTRICITY><INCLINATION>87.9005</INCLINATION><RA_OF_ASC_NODE>97.0368</RA_OF_ASC_NODE><ARG_OF_PERICENTER>88.3497</ARG_OF_PERICENTER><MEAN_ANOMALY>271.7853</MEAN_ANOMALY></meanElements><tleParameters><EPHEMERIS_TYPE>0</EPHEMERIS_TYPE><CLASSIFICATION_TYPE>U</CLASSIFICATION_TYPE><NORAD_CAT_ID>49082</NORAD_CAT_ID><ELEMENT_SET_NO>999</ELEMENT_SET_NO><REV_AT_EPOCH>17337</REV_AT_EPOCH><BSTAR>-.33466E-4</BSTAR><MEAN_MOTION_DOT>0</MEAN_MOTION_DOT><MEAN_MOTION_DDOT>0</MEAN_MOTION_DDOT></tleParameters></data></segment></body></omm>
<omm id="CCSDS_OMM_VERS" version="2.0">
<header><CREATION_DATE/><ORIGINATOR/></header><body><segment><metadata><OBJECT_NAME>ONEWEB-0294</OBJECT_NAME><OBJECT_ID>2021-075J</OBJECT_ID><CENTER_NAME>EARTH</CENTER_NAME><REF_FRAME>TEME</REF_FRAME><TIME_SYSTEM>UTC</TIME_SYSTEM><MEAN_ELEMENT_THEORY>SGP4</MEAN_ELEMENT_THEORY></metadata><data><meanElements><EPOCH>2025-03-16T21:45:15.706656</EPOCH><MEAN_MOTION>13.12445741</MEAN_MOTION><ECCENTRICITY>.0001583</ECCENTRICITY><INCLINATION>87.8797</INCLINATION><RA_OF_ASC_NODE>81.6678</RA_OF_ASC_NODE><ARG_OF_PERICENTER>72.8035</ARG_OF_PERICENTER><MEAN_ANOMALY>287.3267</MEAN_ANOMALY></meanElements><tleParameters><EPHEMERIS_TYPE>0</EPHEMERIS_TYPE><CLASSIFICATION_TYPE>U</CLASSIFICATION_TYPE><NORAD_CAT_ID>49083</NORAD_CAT_ID><ELEMENT_SET_NO>999</ELEMENT_SET_NO><REV_AT_EPOCH>17558</REV_AT_EPOCH><BSTAR>.61342E-3</BSTAR><MEAN_MOTION_DOT>.233E-5</MEAN_MOTION_DOT><MEAN_MOTION_DDOT>0</MEAN_MOTION_DDOT></tleParameters></data></segment></body></omm>
<omm id="CCSDS_OMM_VERS" version="2.0">
<header><CREATION_DATE/><ORIGINATOR/></header><body><segment><metadata><OBJECT_NAME>ONEWEB-0295</OBJECT_NAME><OBJECT_ID>2021-075K</OBJECT_ID><CENTER_NAME>EARTH</CENTER_NAME><REF_FRAME>TEME</REF_FRAME><TIME_SYSTEM>UTC</TIME_SYSTEM><MEAN_ELEMENT_THEORY>SGP4</MEAN_ELEMENT_THEORY></metadata><data><meanElements><EPOCH>2025-03-16T17:57:29.810880</EPOCH><MEAN_MOTION>13.17647953</MEAN_MOTION><ECCENTRICITY>.000154</ECCENTRICITY><INCLINATION>87.9017</INCLINATION><RA_OF_ASC_NODE>96.9873</RA_OF_ASC_NODE><ARG_OF_PERICENTER>95.7799</ARG_OF_PERICENTER><MEAN_ANOMALY>264.3508</MEAN_ANOMALY></meanElements><tleParameters><EPHEMERIS_TYPE>0</EPHEMERIS_TYPE><CLASSIFICATION_TYPE>U</CLASSIFICATION_TYPE><NORAD_CAT_ID>49084</NORAD_CAT_ID><ELEMENT_SET_NO>999</ELEMENT_SET_NO><REV_AT_EPOCH>17335</REV_AT_EPOCH><BSTAR>.33897E-3</BSTAR><MEAN_MOTION_DOT>.145E-5</MEAN_MOTION_DOT><MEAN_MOTION_DDOT>0</MEAN_MOTION_DDOT></tleParameters></data></segment></body></omm>
<omm id="CCSDS_OMM_VERS" version="2.0">
<header><CREATION_DATE/><ORIGINATOR/></header><body><segment><metadata><OBJECT_NAME>ONEWEB-0296</OBJECT_NAME><OBJECT_ID>2021-075L</OBJECT_ID><CENTER_NAME>EARTH</CENTER_NAME><REF_FRAME>TEME</REF_FRAME><TIME_SYSTEM>UTC</TIME_SYSTEM><MEAN_ELEMENT_THEORY>SGP4</MEAN_ELEMENT_THEORY></metadata><data><meanElements><EPOCH>2025-03-16T23:06:59.612544</EPOCH><MEAN_MOTION>13.12441119</MEAN_MOTION><ECCENTRICITY>.0001232</ECCENTRICITY><INCLINATION>87.8799</INCLINATION><RA_OF_ASC_NODE>81.6629</RA_OF_ASC_NODE><ARG_OF_PERICENTER>83.8190</ARG_OF_PERICENTER><MEAN_ANOMALY>276.3079</MEAN_ANOMALY></meanElements><tleParameters><EPHEMERIS_TYPE>0</EPHEMERIS_TYPE><CLASSIFICATION_TYPE>U</CLASSIFICATION_TYPE><NORAD_CAT_ID>49085</NORAD_CAT_ID><ELEMENT_SET_NO>999</ELEMENT_SET_NO><REV_AT_EPOCH>17460</REV_AT_EPOCH><BSTAR>-.9526E-3</BSTAR><MEAN_MOTION_DOT>-.33E-5</MEAN_MOTION_DOT><MEAN_MOTION_DDOT>0</MEAN_MOTION_DDOT></tleParameters></data></segment></body></omm>
<omm id="CCSDS_OMM_VERS" version="2.0">
<header><CREATION_DATE/><ORIGINATOR/></header><body><segment><metadata><OBJECT_NAME>ONEWEB-0297</OBJECT_NAME><OBJECT_ID>2021-075M</OBJECT_ID><CENTER_NAME>EARTH</CENTER_NAME><REF_FRAME>TEME</REF_FRAME><TIME_SYSTEM>UTC</TIME_SYSTEM><MEAN_ELEMENT_THEORY>SGP4</MEAN_ELEMENT_THEORY></metadata><data><meanElements><EPOCH>2025-03-16T22:01:37.411968</EPOCH><MEAN_MOTION>13.12442507</MEAN_MOTION><ECCENTRICITY>.0001848</ECCENTRICITY><INCLINATION>87.8807</INCLINATION><RA_OF_ASC_NODE>81.6993</RA_OF_ASC_NODE><ARG_OF_PERICENTER>91.5804</ARG_OF_PERICENTER><MEAN_ANOMALY>268.5536</MEAN_ANOMALY></meanElements><tleParameters><EPHEMERIS_TYPE>0</EPHEMERIS_TYPE><CLASSIFICATION_TYPE>U</CLASSIFICATION_TYPE><NORAD_CAT_ID>49086</NORAD_CAT_ID><ELEMENT_SET_NO>999</ELEMENT_SET_NO><REV_AT_EPOCH>17520</REV_AT_EPOCH><BSTAR>.13332E-2</BSTAR><MEAN_MOTION_DOT>.492E-5</MEAN_MOTION_DOT><MEAN_MOTION_DDOT>0</MEAN_MOTION_DDOT></tleParameters></data></segment></body></omm>
<omm id="CCSDS_OMM_VERS" version="2.0">
<header><CREATION_DATE/><ORIGINATOR/></header><body><segment><metadata><OBJECT_NAME>ONEWEB-0298</OBJECT_NAME><OBJECT_ID>2021-075N</OBJECT_ID><CENTER_NAME>EARTH</CENTER_NAME><REF_FRAME>TEME</REF_FRAME><TIME_SYSTEM>UTC</TIME_SYSTEM><MEAN_ELEMENT_THEORY>SGP4</MEAN_ELEMENT_THEORY></metadata><data><meanElements><EPOCH>2025-03-16T18:03:47.051424</EPOCH><MEAN_MOTION>13.17650349</MEAN_MOTION><ECCENTRICITY>.0001869</ECCENTRICITY><INCLINATION>87.9006</INCLINATION><RA_OF_ASC_NODE>97.0030</RA_OF_ASC_NODE><ARG_OF_PERICENTER>98.8508</ARG_OF_PERICENTER><MEAN_ANOMALY>261.2835</MEAN_ANOMALY></meanElements><tleParameters><EPHEMERIS_TYPE>0</EPHEMERIS_TYPE><CLASSIFICATION_TYPE>U</CLASSIFICATION_TYPE><NORAD_CAT_ID>49087</NORAD_CAT_ID><ELEMENT_SET_NO>999</ELEMENT_SET_NO><REV_AT_EPOCH>17338</REV_AT_EPOCH><BSTAR>.16851E-3</BSTAR><MEAN_MOTION_DOT>.78E-6</MEAN_MOTION_DOT><MEAN_MOTION_DDOT>0</MEAN_MOTION_DDOT></tleParameters></data></segment></body></omm>
<omm id="CCSDS_OMM_VERS" version="2.0">
<header><CREATION_DATE/><ORIGINATOR/></header><body><segment><metadata><OBJECT_NAME>ONEWEB-0299</OBJECT_NAME><OBJECT_ID>2021-075P</OBJECT_ID><CENTER_NAME>EARTH</CENTER_NAME><REF_FRAME>TEME</REF_FRAME><TIME_SYSTEM>UTC</TIME_SYSTEM><MEAN_ELEMENT_THEORY>SGP4</MEAN_ELEMENT_THEORY></metadata><data><meanElements><EPOCH>2025-03-16T18:06:00.905760</EPOCH><MEAN_MOTION>13.17651677</MEAN_MOTION><ECCENTRICITY>.0001824</ECCENTRICITY><INCLINATION>87.9001</INCLINATION><RA_OF_ASC_NODE>96.9600</RA_OF_ASC_NODE><ARG_OF_PERICENTER>100.2423</ARG_OF_PERICENTER><MEAN_ANOMALY>259.8914</MEAN_ANOMALY></meanElements><tleParameters><EPHEMERIS_TYPE>0</EPHEMERIS_TYPE><CLASSIFICATION_TYPE>U</CLASSIFICATION_TYPE><NORAD_CAT_ID>49088</NORAD_CAT_ID><ELEMENT_SET_NO>999</ELEMENT_SET_NO><REV_AT_EPOCH>17336</REV_AT_EPOCH><BSTAR>.23701E-3</BSTAR><MEAN_MOTION_DOT>.105E-5</MEAN_MOTION_DOT><MEAN_MOTION_DDOT>0</MEAN_MOTION_DDOT></tleParameters></data></segment></body></omm>

</ndm>
